ONEWEB-0109             
1 47259U 20100B   21252.89003278 -.00000187  00000-0 -55619-3 0  9996
2 47259  87.8935 336.7463 0001889 113.0177 247.1151 13.12444539 36159
ONEWEB-0110             
1 47260U 20100C   21252.30181258 -.00064259  00000-0 -18120+0 0  9991
2 47260  87.8967 336.9527 0002128 172.1321 187.9841 13.11949434 36243
ONEWEB-0111             
1 47261U 20100D   21252.86672497 -.00000190  00000-0 -56231-3 0  9996
2 47261  87.8968 336.8671 0001648 102.6022 257.5291 13.12439425 36154
ONEWEB-0114             
1 47262U 20100E   21252.66978613  .00000111  00000-0  27286-3 0  9993
2 47262  87.8900 336.7595 0002014 109.0148 251.1199 13.12443619 36082
ONEWEB-0117             
1 47263U 20100F   21252.66343673 -.00000145  00000-0 -43890-3 0  9994
2 47263  87.8919 336.8707 0001769 105.6268 254.5056 13.12442309 36095
ONEWEB-0118             
1 47264U 20100G   21252.69095229  .00000437  00000-0  11792-2 0  9996
2 47264  87.8952 336.8874 0002016 105.3466 254.7885 13.12445523 36296
ONEWEB-0119             
1 47265U 20100H   21252.79685799 -.00000335  00000-0 -96573-3 0  9995
2 47265  87.8942 336.9360 0001742 104.6909 255.4413 13.12440338 36289
ONEWEB-0120             
1 47266U 20100J   21252.67402133  .00000234  00000-0  61566-3 0  9992
2 47266  87.9017 336.8503 0001952 110.9020 249.2318 13.12443924 36299
ONEWEB-0121             
1 47267U 20100K   21252.65920318 -.00000251  00000-0 -73337-3 0  9991
2 47267  87.9024 336.9062 0001586 101.1778 258.9529 13.12444485 36209
ONEWEB-0122             
1 47268U 20100L   21252.72909840 -.00000403  00000-0 -11550-2 0  9994
2 47268  87.8935 336.8483 0001998  91.2400 268.8958 13.12437573 36121
ONEWEB-0123             
1 47269U 20100M   21252.72271211 -.00000421  00000-0 -12062-2 0  9998
2 47269  87.8957 336.9128 0001915 103.1831 256.9511 13.12441423 36260
ONEWEB-0124             
1 47270U 20100N   21252.70792184  .00000116  00000-0  28743-3 0  9998
2 47270  87.8926 336.8647 0001753 100.5749 259.5577 13.12442224 36140
ONEWEB-0125             
1 47271U 20100P   21252.68673587  .00000454  00000-0  12269-2 0  9991
2 47271  87.9002 336.9110 0001848  98.9199 261.2138 13.12444369 36209
ONEWEB-0126             
1 47272U 20100Q   21252.63590492 -.00000238  00000-0 -69674-3 0  9995
2 47272  87.8958 336.9764 0001817 111.4147 248.7175 13.12442678 36262
ONEWEB-0127             
1 47273U 20100R   21252.67613837  .00000306  00000-0  81405-3 0  9999
2 47273  87.8936 336.8770 0001970 110.4351 249.6989 13.12443830 36298
ONEWEB-0128             
1 47274U 20100S   21252.69520616  .00000355  00000-0  95060-3 0  9990
2 47274  87.8956 336.8756 0001625 105.9031 254.2276 13.12443644 36313
ONEWEB-0129             
1 47275U 20100T   21252.67825537  .00000362  00000-0  97194-3 0  9997
2 47275  87.8969 336.8101 0003507 135.0088 225.1325 13.12443991 36248
ONEWEB-0130             
1 47276U 20100U   21252.70366622  .00000075  00000-0  17388-3 0  9995
2 47276  87.8991 336.8744 0001543 116.1115 244.0172 13.12441824 36216
ONEWEB-0131             
1 47277U 20100V   21252.69944875  .00000221  00000-0  58027-3 0  9994
2 47277  87.8990 336.8227 0001876  96.5336 263.6006 13.12441324 36259
ONEWEB-0132             
1 47278U 20100W   21252.80955574 -.00000351  00000-0 -10121-2 0  9994
2 47278  87.8951 336.9326 0002109 102.0703 258.0662 13.12441147 36168
ONEWEB-0133             
1 47279U 20100X   21252.67191885  .00000130  00000-0  32580-3 0  9994
2 47279  87.8976 336.8398 0001800 109.6296 250.5027 13.12443587 36309
ONEWEB-0134             
1 47280U 20100Y   21252.71637992 -.00000309  00000-0 -89502-3 0  9991
2 47280  87.8943 336.8771 0001658  94.4570 265.6748 13.12442411 36286
ONEWEB-0135             
1 47281U 20100Z   21252.68461982  .00000431  00000-0  11619-2 0  9999
2 47281  87.8948 336.8687 0001814 112.0599 248.0723 13.12440907 36309
ONEWEB-0136             
1 47282U 20100AA  21252.70594099  .00000023  00000-0  28186-4 0  9995
2 47282  87.8970 336.8165 0001363 121.1245 239.0017 13.12381862 36236
ONEWEB-0137             
1 47283U 20100AB  21252.82014732  .00000020  00000-0  19263-4 0  9993
2 47283  87.8932 336.9207 0002243 105.8549 254.2827 13.12440179 36153
ONEWEB-0138             
1 47284U 20100AC  21252.71848312 -.00000338  00000-0 -97570-3 0  9991
2 47284  87.8936 336.9272 0001836 110.2652 249.8674 13.12443266 36220
ONEWEB-0139             
1 47285U 20100AD  21252.84132701  .00000451  00000-0  12189-2 0  9990
2 47285  87.8989 336.9106 0001639 105.0831 255.0479 13.12441960 36318
ONEWEB-0140             
1 47286U 20100AE  21252.78624880 -.00000084  00000-0 -26962-3 0  9997
2 47286  87.8965 336.8945 0001630 113.1985 246.9315 13.12440271 36271
ONEWEB-0141             
1 47287U 20100AF  21252.70156063  .00000174  00000-0  44941-3 0  9998
2 47287  87.8940 336.9195 0001827 108.4161 251.7166 13.12440464 36243
ONEWEB-0142             
1 47288U 20100AG  21253.10602867 -.00000338  00000-0 -97585-3 0  9998
2 47288  87.8967 336.9071 0002191 101.4213 258.7162 13.12441953 36294
ONEWEB-0143             
1 47289U 20100AH  21252.68037719  .00000394  00000-0  10612-2 0  9994
2 47289  87.8989 336.8558 0001829 104.9539 255.1792 13.12442050 36215
ONEWEB-0144             
1 47290U 20100AJ  21252.57874148  .00000201  00000-0  52215-3 0  9992
2 47290  87.8990 336.7909 0001581 100.8654 259.2652 13.12445546 36129
ONEWEB-0145             
1 47291U 20100AK  21252.77355066  .00000333  00000-0  88961-3 0  9991
2 47291  87.8963 336.8765 0001792 110.5704 249.5617 13.12441207 36346
ONEWEB-0146             
1 47292U 20100AL  21252.69308860  .00000388  00000-0  10429-2 0  9996
2 47292  87.8950 336.9285 0001733 108.4910 251.6407 13.12443278 36241
ONEWEB-0147             
1 47293U 20100AM  21252.66553215 -.00000009  00000-0 -60451-4 0  9994
2 47293  87.8968 336.9185 0001783 137.5862 222.5405 13.12446985 36135
YUANGUANG               
1 47296U 20102A   21253.10209786  .00001640  00000-0  80674-4 0  9999
2 47296  97.4353 349.2626 0007684   5.8055 115.7991 15.19405871 39760
HAISI 1                 
1 47297U 20102B   21253.14242266  .00000515  00000-0  27233-4 0  9996
2 47297  97.4343 349.4304 0005521 355.1044  98.9553 15.19790691 39765
XJY-7                   
1 47298U 20102C   21253.12176108  .00002444  00000-0  10518-3 0  9996
2 47298  97.3939 349.6198 0001642  83.8714  34.0839 15.23570817 39879
TIANQI-8                
1 47299U 20102D   21253.13196854  .00001695  00000-0  80996-4 0  9993
2 47299  97.4358 349.6706 0004121 340.0790 137.4404 15.20368758 39780
ET-SMART-RSS            
1 47300U 20102E   21253.10154115  .00002730  00000-0  12433-3 0  9998
2 47300  97.4365 350.0351 0002989 288.4885 192.1096 15.21526651 39800
YAOGAN-33               
1 47302U 20103A   21253.02594284  .00000073  00000-0  25247-4 0  9993
2 47302  98.2401 141.5738 0001154  95.6291 264.5042 14.59173135 37398
WEINA 2                 
1 47303U 20103B   21253.07843356  .00000194  00000-0  50953-4 0  9992
2 47303  98.2416 141.7085 0001317  63.9404 296.1934 14.59178097 37402
TURKSAT 5A              
1 47306U 21001A   21252.67345595  .00000148  00000-0  00000-0 0  9993
2 47306   0.0176 141.6816 0000061 221.0606 259.5716  1.00272199  2511
CAPE-3                  
1 47309U 21002A   21253.05547946  .00001982  00000-0  98390-4 0  9994
2 47309  60.6843 335.5881 0045467  93.2091 267.4199 15.21097657 35756
POLARCUBE               
1 47310U 21002B   21252.70109895  .00004380  00000-0  19742-3 0  9992
2 47310  60.6857 336.0906 0043741  92.9180 267.6913 15.22005818 35693
RADFXSAT-2 (AO-109)     
1 47311U 21002C   21252.65474638  .00002048  00000-0  99179-4 0  9999
2 47311  60.6866 335.9256 0041588  90.8033 269.7820 15.21957367 35684
2021-002D               
1 47312U 21002D   21252.69554658  .00017451  00000-0  66426-3 0  9997
2 47312  60.6865 333.2508 0037195  88.7744 271.7605 15.26263235 35727
PROMETHEUS 2-11         
1 47313U 21002E   21252.65387163  .00004468  00000-0  19419-3 0  9993
2 47313  60.6856 334.7367 0043274  86.1775 274.4259 15.23233774 35703
MITEE-1                 
1 47314U 21002F   21252.77014943  .00004255  00000-0  18336-3 0  9991
2 47314  60.6858 333.5938 0042335  83.3263 277.2640 15.23663887 35757
2021-002G               
1 47315U 21002G   21252.74926163  .00002305  00000-0  10528-3 0  9994
2 47315  60.6864 333.4838 0040703  82.7515 277.8196 15.23548381 35756
2021-002J               
1 47317U 21002J   21252.78529928  .00002014  00000-0  99686-4 0  9998
2 47317  60.6842 336.5270 0045901  92.6692 267.9650 15.21110621 35686
2021-002K               
1 47318U 21002K   21252.64965668  .00002343  00000-0  11384-3 0  9992
2 47318  60.6847 336.9960 0046156  92.3949 268.2423 15.21134511 35661
CP12 (EXOCUBE 2)        
1 47319U 21002L   21253.04020284  .00002245  00000-0  10854-3 0  9996
2 47319  60.6858 334.9438 0043252  92.3256 268.2784 15.21585654 35700
TIANTONG-1 3            
1 47321U 21003A   21252.82657735 -.00000162  00000-0  00000-0 0  9998
2 47321   5.0418 308.9259 0003347 230.9904 188.2318  1.00270779  2519
PROMETHEUS 2-8          
1 47345U 21002N   21252.65322809  .00004342  00000-0  18900-3 0  9999
2 47345  60.6855 334.7332 0043264  86.1470 274.4562 15.23240490 35441
GMS-T                   
1 47346U 21004A   21252.95294107 -.00000016  00000-0 -64200-4 0  9995
2 47346  90.0084 229.9766 0004277  96.9363 263.2259 13.16599250 30603
STARLINK-1952           
1 47349U 21005A   21253.08427484 -.00001003  00000-0 -13587-4 0  9999
2 47349  53.0511 228.4725 0001269  91.3641 268.7509 15.42170865 36315
STARLINK-2011           
1 47350U 21005B   21252.99726907 -.00000376  00000-0 -63378-5 0  9998
2 47350  53.0519 231.5168 0001266  82.4083 277.7050 15.06395196 36271
STARLINK-2017           
1 47351U 21005C   21252.23058902 -.00000545  00000-0 -17657-4 0  9995
2 47351  53.0513 194.9129 0001802  34.8773 325.2334 15.06392569 36048
STARLINK-2034           
1 47352U 21005D   21253.04518521  .00001279  00000-0  10471-3 0  9993
2 47352  53.0542 231.2408 0001552  57.8002 302.3137 15.06402605 36262
